STARLINK-30494          
1 57970U 23151G   26068.36049035 -.00001272  00000+0 -35691-4 0  9993
2 57970  43.0027 192.4566 0001155 241.5536 118.5200 15.28417441137406
STARLINK-31570          
1 59324U 24057E   26068.35684828  .00000018  00000+0  10165-4 0  9992
2 59324  42.9966 189.3406 0000715 262.3342  97.7428 15.27569828109782
